[{"OBJECT_NAME":"YAOGAN-36 02A","OBJECT_ID":"2022-133A","EPOCH":"2026-03-10T00:04:36.049728","MEAN_MOTION":15.23118612,"ECCENTRICITY":0.00301484,"INCLINATION":35.0077,"RA_OF_ASC_NODE":23.5078,"ARG_OF_PERICENTER":29.898,"MEAN_ANOMALY":330.345,"EPHEMERIS_TYPE":0,"CLASSIFICATION_TYPE":"U","NORAD_CAT_ID":54042,"ELEMENT_SET_NO":999,"REV_AT_EPOCH":18962,"BSTAR":0.00070143583,"MEAN_MOTION_DOT":0.00017174,"MEAN_MOTION_DDOT":0},{"OBJECT_NAME":"STARLINK-34191","OBJECT_ID":"2025-113G","EPOCH":"2026-03-09T23:09:06.980832","MEAN_MOTION":15.30170826,"ECCENTRICITY":0.00012342,"INCLINATION":53.1596,"RA_OF_ASC_NODE":89.3978,"ARG_OF_PERICENTER":83.0235,"MEAN_ANOMALY":277.0906,"EPHEMERIS_TYPE":0,"CLASSIFICATION_TYPE":"U","NORAD_CAT_ID":64176,"ELEMENT_SET_NO":999,"REV_AT_EPOCH":4511,"BSTAR":0.00068593285,"MEAN_MOTION_DOT":0.00019993,"MEAN_MOTION_DDOT":0}]
